STARLINK-6041           
1 56478U 23064AG  26068.51797107  .00004877  00000+0  41651-3 0  9999
2 56478  69.9997 124.8907 0003042 271.0430  89.0380 14.98304487155713
LEMUR-2-LIA-MARTIN      
1 63248U 25052AQ  26068.70341042  .00006911  00000+0  60828-3 0  9993
2 63248  97.6996 322.6614 0003817 139.7155 220.4350 14.96805944 53795
